{
 "generated_at": "2026-07-07T08:23:21Z",
 "sources": [
  {
   "name": "CelesTrak",
   "url": "https://celestrak.org/NORAD/elements/",
   "license": "frei verfügbar; Attribution. Ursprünglich USSPACECOM/Space-Track."
  },
  {
   "name": "GCAT (J. McDowell, planet4589.org)",
   "url": "https://planet4589.org/space/gcat/",
   "license": "CC-BY 4.0"
  }
 ],
 "satellites": [
  {
   "norad": 59371,
   "name": "RESURS-P 4",
   "intl": "2024-061A",
   "group": "resource",
   "gcat": {
    "class": "C",
    "category": "IMG",
    "owner": "TSSKBP?",
    "state": "RU"
   },
   "omm": {
    "OBJECT_NAME": "RESURS-P 4",
    "OBJECT_ID": "2024-061A",
    "EPOCH": "2026-07-06T20:32:15.053856",
    "MEAN_MOTION": 15.32246707,
    "ECCENTRICITY": 0.0003179,
    "INCLINATION": 97.2755,
    "RA_OF_ASC_NODE": 135.4136,
    "ARG_OF_PERICENTER": 101.8196,
    "MEAN_ANOMALY": 258.3403,
    "EPHEMERIS_TYPE": 0,
    "CLASSIFICATION_TYPE": "U",
    "NORAD_CAT_ID": 59371,
    "ELEMENT_SET_NO": 999,
    "REV_AT_EPOCH": 12677,
    "BSTAR": 0.000091037,
    "MEAN_MOTION_DOT": 0.00002758,
    "MEAN_MOTION_DDOT": 0
   }
  },
  {
   "norad": 44233,
   "name": "RISAT-2B",
   "intl": "2019-028A",
   "group": "sar",
   "gcat": {
    "class": "C",
    "category": "IMG-R",
    "owner": "ISRO",
    "state": "IN"
   },
   "omm": {
    "OBJECT_NAME": "RISAT-2B",
    "OBJECT_ID": "2019-028A",
    "EPOCH": "2026-07-06T13:36:40.900320",
    "MEAN_MOTION": 15.01774331,
    "ECCENTRICITY": 0.0005176,
    "INCLINATION": 36.9963,
    "RA_OF_ASC_NODE": 239.1402,
    "ARG_OF_PERICENTER": 206.6683,
    "MEAN_ANOMALY": 153.3794,
    "EPHEMERIS_TYPE": 0,
    "CLASSIFICATION_TYPE": "U",
    "NORAD_CAT_ID": 44233,
    "ELEMENT_SET_NO": 999,
    "REV_AT_EPOCH": 39074,
    "BSTAR": 0.00017738,
    "MEAN_MOTION_DOT": 0.00002275,
    "MEAN_MOTION_DDOT": 0
   }
  },
  {
   "norad": 44857,
   "name": "RISAT-2BR1",
   "intl": "2019-089F",
   "group": "sar",
   "gcat": {
    "class": "C",
    "category": "IMG-R",
    "owner": "ISRO",
    "state": "IN"
   },
   "omm": {
    "OBJECT_NAME": "RISAT-2BR1",
    "OBJECT_ID": "2019-089F",
    "EPOCH": "2026-07-06T20:02:28.821984",
    "MEAN_MOTION": 15.01779092,
    "ECCENTRICITY": 0.001285,
    "INCLINATION": 36.9618,
    "RA_OF_ASC_NODE": 355.0173,
    "ARG_OF_PERICENTER": 328.1652,
    "MEAN_ANOMALY": 31.8313,
    "EPHEMERIS_TYPE": 0,
    "CLASSIFICATION_TYPE": "U",
    "NORAD_CAT_ID": 44857,
    "ELEMENT_SET_NO": 999,
    "REV_AT_EPOCH": 36015,
    "BSTAR": 0.00028381,
    "MEAN_MOTION_DOT": 0.00003696,
    "MEAN_MOTION_DDOT": 0
   }
  },
  {
   "norad": 46905,
   "name": "RISAT-2BR2",
   "intl": "2020-081A",
   "group": "sar",
   "gcat": {
    "class": "C",
    "category": "IMG-R",
    "owner": "ISRO",
    "state": "IN"
   },
   "omm": {
    "OBJECT_NAME": "RISAT-2BR2",
    "OBJECT_ID": "2020-081A",
    "EPOCH": "2026-07-06T18:22:40.490688",
    "MEAN_MOTION": 15.01146987,
    "ECCENTRICITY": 0.0014529,
    "INCLINATION": 36.8985,
    "RA_OF_ASC_NODE": 108.0248,
    "ARG_OF_PERICENTER": 313.0463,
    "MEAN_ANOMALY": 46.9061,
    "EPHEMERIS_TYPE": 0,
    "CLASSIFICATION_TYPE": "U",
    "NORAD_CAT_ID": 46905,
    "ELEMENT_SET_NO": 999,
    "REV_AT_EPOCH": 31041,
    "BSTAR": 0.00025752,
    "MEAN_MOTION_DOT": 0.00003293,
    "MEAN_MOTION_DDOT": 0
   }
  },
  {
   "norad": 43641,
   "name": "SAOCOM 1A",
   "intl": "2018-076A",
   "group": "sar",
   "gcat": {
    "class": "C",
    "category": "IMG-R",
    "owner": "CONAE",
    "state": "AR"
   },
   "omm": {
    "OBJECT_NAME": "SAOCOM 1A",
    "OBJECT_ID": "2018-076A",
    "EPOCH": "2026-07-06T20:22:42.532032",
    "MEAN_MOTION": 14.82163652,
    "ECCENTRICITY": 0.0001519,
    "INCLINATION": 97.8888,
    "RA_OF_ASC_NODE": 14.3118,
    "ARG_OF_PERICENTER": 79.5987,
    "MEAN_ANOMALY": 280.5398,
    "EPHEMERIS_TYPE": 0,
    "CLASSIFICATION_TYPE": "U",
    "NORAD_CAT_ID": 43641,
    "ELEMENT_SET_NO": 999,
    "REV_AT_EPOCH": 41901,
    "BSTAR": 0.000040184,
    "MEAN_MOTION_DOT": 0.00000268,
    "MEAN_MOTION_DDOT": 0
   }
  },
  {
   "norad": 46265,
   "name": "SAOCOM 1B",
   "intl": "2020-059A",
   "group": "sar",
   "gcat": {
    "class": "C",
    "category": "IMG-R",
    "owner": "CONAE",
    "state": "AR"
   },
   "omm": {
    "OBJECT_NAME": "SAOCOM 1B",
    "OBJECT_ID": "2020-059A",
    "EPOCH": "2026-07-06T19:30:28.410912",
    "MEAN_MOTION": 14.82156548,
    "ECCENTRICITY": 0.0001596,
    "INCLINATION": 97.8892,
    "RA_OF_ASC_NODE": 13.3717,
    "ARG_OF_PERICENTER": 81.3877,
    "MEAN_ANOMALY": 278.7517,
    "EPHEMERIS_TYPE": 0,
    "CLASSIFICATION_TYPE": "U",
    "NORAD_CAT_ID": 46265,
    "ELEMENT_SET_NO": 999,
    "REV_AT_EPOCH": 31639,
    "BSTAR": 0.00014952,
    "MEAN_MOTION_DOT": 0.00001138,
    "MEAN_MOTION_DDOT": 0
   }
  },
  {
   "norad": 31797,
   "name": "SAR-LUPE 2",
   "intl": "2007-030A",
   "group": "sar",
   "gcat": {
    "class": "D",
    "category": "IMG-R",
    "owner": "BWB",
    "state": "D"
   },
   "omm": {
    "OBJECT_NAME": "SAR-LUPE 2",
    "OBJECT_ID": "2007-030A",
    "EPOCH": "2026-07-06T19:45:54.088416",
    "MEAN_MOTION": 15.52908597,
    "ECCENTRICITY": 0.0003673,
    "INCLINATION": 98.1055,
    "RA_OF_ASC_NODE": 294.7373,
    "ARG_OF_PERICENTER": 214.8386,
    "MEAN_ANOMALY": 145.2625,
    "EPHEMERIS_TYPE": 0,
    "CLASSIFICATION_TYPE": "U",
    "NORAD_CAT_ID": 31797,
    "ELEMENT_SET_NO": 999,
    "REV_AT_EPOCH": 5998,
    "BSTAR": 0.00017961,
    "MEAN_MOTION_DOT": 0.00011051,
    "MEAN_MOTION_DDOT": 0
   }
  },
  {
   "norad": 39086,
   "name": "SARAL",
   "intl": "2013-009A",
   "group": "resource",
   "gcat": {
    "class": "C",
    "category": "SCI",
    "owner": "ISRO/CNES",
    "state": "IN"
   },
   "omm": {
    "OBJECT_NAME": "SARAL",
    "OBJECT_ID": "2013-009A",
    "EPOCH": "2026-07-06T19:16:07.623264",
    "MEAN_MOTION": 14.32894268,
    "ECCENTRICITY": 0.0001178,
    "INCLINATION": 98.5554,
    "RA_OF_ASC_NODE": 14.122,
    "ARG_OF_PERICENTER": 191.1197,
    "MEAN_ANOMALY": 168.9962,
    "EPHEMERIS_TYPE": 0,
    "CLASSIFICATION_TYPE": "U",
    "NORAD_CAT_ID": 39086,
    "ELEMENT_SET_NO": 999,
    "REV_AT_EPOCH": 69841,
    "BSTAR": 0.000043401,
    "MEAN_MOTION_DOT": 7.5e-7,
    "MEAN_MOTION_DDOT": 0
   }
  },
  {
   "norad": 43831,
   "name": "SAUDISAT 5A",
   "intl": "2018-102A",
   "group": "resource",
   "gcat": {
    "class": "C",
    "category": "TECH",
    "owner": "KACST",
    "state": "SA"
   },
   "omm": {
    "OBJECT_NAME": "SAUDISAT 5A",
    "OBJECT_ID": "2018-102A",
    "EPOCH": "2026-07-06T20:59:24.891360",
    "MEAN_MOTION": 15.28262364,
    "ECCENTRICITY": 0.0011028,
    "INCLINATION": 97.3055,
    "RA_OF_ASC_NODE": 249.0774,
    "ARG_OF_PERICENTER": 69.5807,
    "MEAN_ANOMALY": 290.6616,
    "EPHEMERIS_TYPE": 0,
    "CLASSIFICATION_TYPE": "U",
    "NORAD_CAT_ID": 43831,
    "ELEMENT_SET_NO": 999,
    "REV_AT_EPOCH": 41868,
    "BSTAR": 0.00017401,
    "MEAN_MOTION_DOT": 0.00004725,
    "MEAN_MOTION_DDOT": 0
   }
  },
  {
   "norad": 43833,
   "name": "SAUDISAT 5B",
   "intl": "2018-102C",
   "group": "resource",
   "gcat": {
    "class": "C",
    "category": "TECH",
    "owner": "KACST",
    "state": "SA"
   },
   "omm": {
    "OBJECT_NAME": "SAUDISAT 5B",
    "OBJECT_ID": "2018-102C",
    "EPOCH": "2026-07-06T21:21:52.879104",
    "MEAN_MOTION": 15.28508612,
    "ECCENTRICITY": 0.0011785,
    "INCLINATION": 97.3163,
    "RA_OF_ASC_NODE": 252.1981,
    "ARG_OF_PERICENTER": 71.0744,
    "MEAN_ANOMALY": 289.1772,
    "EPHEMERIS_TYPE": 0,
    "CLASSIFICATION_TYPE": "U",
    "NORAD_CAT_ID": 43833,
    "ELEMENT_SET_NO": 999,
    "REV_AT_EPOCH": 41880,
    "BSTAR": 0.00015928,
    "MEAN_MOTION_DOT": 0.00004353,
    "MEAN_MOTION_DDOT": 0
   }
  }
 ]
}
