SAR-LUPE 2              
1 31797U 07030A   26187.82354269  .00011051  00000+0  17961-3 0  9994
2 31797  98.1055 294.7373 0003673 214.8386 145.2625 15.52908597 59980
SARAL                   
1 39086U 13009A   26187.80286601  .00000075  00000+0  43401-4 0  9991
2 39086  98.5554  14.1220 0001178 191.1197 168.9962 14.32894268698416
SAOCOM 1A               
1 43641U 18076A   26187.84910338  .00000268  00000+0  40184-4 0  9996
2 43641  97.8888  14.3118 0001519  79.5987 280.5398 14.82163652419015
SAUDISAT 5A             
1 43831U 18102A   26187.87459365  .00004725  00000+0  17401-3 0  9995
2 43831  97.3055 249.0774 0011028  69.5807 290.6616 15.28262364418686
SAUDISAT 5B             
1 43833U 18102C   26187.89019536  .00004353  00000+0  15928-3 0  9990
2 43833  97.3163 252.1981 0011785  71.0744 289.1772 15.28508612418800
RISAT-2B                
1 44233U 19028A   26187.56714005  .00002275  00000+0  17738-3 0  9992
2 44233  36.9963 239.1402 0005176 206.6683 153.3794 15.01774331390742
RISAT-2BR1              
1 44857U 19089F   26187.83505581  .00003696  00000+0  28381-3 0  9992
2 44857  36.9618 355.0173 0012850 328.1652  31.8313 15.01779092360155
SAOCOM 1B               
1 46265U 20059A   26187.81282883  .00001138  00000+0  14952-3 0  9999
2 46265  97.8892  13.3717 0001596  81.3877 278.7517 14.82156548316398
RISAT-2BR2              
1 46905U 20081A   26187.76574642  .00003293  00000+0  25752-3 0  9990
2 46905  36.8985 108.0248 0014529 313.0463  46.9061 15.01146987310416
RESURS-P 4              
1 59371U 24061A   26187.85572979  .00002758  00000+0  91037-4 0  9999
2 59371  97.2755 135.4136 0003179 101.8196 258.3403 15.32246707126776
